{
    "links": {
        "self": "http://www.neowsapp.com/rest/v1/neo/3647025?api_key=iIulBulltgU6a56xZRHN4H3l9WmuAYTsLGpBGhQ2"
    },
    "id": "3647025",
    "neo_reference_id": "3647025",
    "name": "(2013 RC6)",
    "designation": "2013 RC6",
    "nasa_jpl_url": "http://ssd.jpl.nasa.gov/sbdb.cgi?sstr=3647025",
    "absolute_magnitude_h": 25.5,
    "estimated_diameter": {
        "kilometers": {
            "estimated_diameter_min": 0.0211132445,
            "estimated_diameter_max": 0.0472106499
        },
        "meters": {
            "estimated_diameter_min": 21.113244479,
            "estimated_diameter_max": 47.2106498806
        },
        "miles": {
            "estimated_diameter_min": 0.0131191578,
            "estimated_diameter_max": 0.0293353287
        },
        "feet": {
            "estimated_diameter_min": 69.2691770164,
            "estimated_diameter_max": 154.8905885541
        }
    },
    "is_potentially_hazardous_asteroid": false,
    "close_approach_data": [
        {
            "close_approach_date": "2013-09-07",
            "close_approach_date_full": "2013-Sep-07 16:32",
            "epoch_date_close_approach": 1378571520000,
            "relative_velocity": {
                "kilometers_per_second": "11.7153313103",
                "kilometers_per_hour": "42175.1927172334",
                "miles_per_hour": "26206.0246081054"
            },
            "miss_distance": {
                "astronomical": "0.0472730487",
                "lunar": "18.3892159443",
                "kilometers": "7071947.393926269",
                "miles": "4394304.3439857522"
            },
            "orbiting_body": "Earth"
        },
        {
            "close_approach_date": "2014-01-06",
            "close_approach_date_full": "2014-Jan-06 20:49",
            "epoch_date_close_approach": 1389041340000,
            "relative_velocity": {
                "kilometers_per_second": "7.8517621492",
                "kilometers_per_hour": "28266.3437371365",
                "miles_per_hour": "17563.6067515557"
            },
            "miss_distance": {
                "astronomical": "0.3878914636",
                "lunar": "150.8897793404",
                "kilometers": "58027736.745742532",
                "miles": "36056763.6394576616"
            },
            "orbiting_body": "Earth"
        }
    ],
    "orbital_data": {
        "orbit_id": "8",
        "orbit_determination_date": "2017-04-06 08:44:54",
        "first_observation_date": "2013-09-02",
        "last_observation_date": "2013-09-06",
        "data_arc_in_days": 4,
        "observations_used": 39,
        "orbit_uncertainty": "8",
        "minimum_orbit_intersection": ".0472549",
        "jupiter_tisserand_invariant": "4.494",
        "epoch_osculation": "2456538.5",
        "eccentricity": ".3385355847305336",
        "semi_major_axis": "1.468091188115697",
        "inclination": "18.2067936280275",
        "ascending_node_longitude": "161.030524893454",
        "orbital_period": "649.7226017775426",
        "perihelion_distance": ".9710900793092058",
        "perihelion_argument": "229.1561561184988",
        "aphelion_distance": "1.965092296922188",
        "perihelion_time": "2456582.865901687669",
        "mean_anomaly": "335.4176250543468",
        "mean_motion": ".5540826177434717",
        "equinox": "J2000",
        "orbit_class": {
            "orbit_class_type": "APO",
            "orbit_class_description": "Near-Earth asteroid orbits which cross the Earth’s orbit similar to that of 1862 Apollo",
            "orbit_class_range": "a (semi-major axis) > 1.0 AU; q (perihelion) < 1.017 AU"
        }
    },
    "is_sentry_object": false
}